ONEWEB-0256             
1 48974U 21060H   24052.00821510  .00000100  00000+0  22783-3 0  9996
2 48974  87.9066  37.3877 0002023  90.0172 270.1190 13.16595444129443
ONEWEB-0257             
1 48975U 21060J   24051.96464624  .00000082  00000+0  18202-3 0  9990
2 48975  87.9066  37.3703 0002087  85.6702 274.4668 13.16596108129390
ONEWEB-0258             
1 48976U 21060K   24051.96624956  .00000033  00000+0  53179-4 0  9996
2 48976  87.9066  37.3990 0001829  84.1280 276.0059 13.16594858129399
ONEWEB-0259             
1 48977U 21060L   24052.18790936  .00000030  00000+0  43894-4 0  9994
2 48977  87.9066  37.3398 0001718  76.3357 283.7965 13.16594307129465
ONEWEB-0260             
1 48978U 21060M   24052.18156792 -.00000032  00000+0 -11609-3 0  9993
2 48978  87.9066  37.3704 0002515  93.1694 266.9725 13.16595308129430
ONEWEB-0261             
1 48979U 21060N   24051.92032407 -.00000039  00000+0 -13449-3 0  9992
2 48979  87.9065  37.4121 0002289  73.9520 286.1863 13.16593003128173
ONEWEB-0262             
1 48980U 21060P   24051.97731411 -.00000002  00000+0 -38087-4 0  9996
2 48980  87.9065  37.3682 0001795  68.7985 291.3338 13.16596115128143
ONEWEB-0263             
1 48981U 21060Q   24051.93297584  .00000015  00000+0  61294-5 0  9990
2 48981  87.9066  37.3895 0002156  72.2156 287.9210 13.16596319128105
